     3.00           N                   E                   RINEX VERSION / TYPE
BRD_USR             ESA                 20190115 121717  UTCPGM / RUN BY / DATE
 GAL   3.5750E+01  1.3672E-01 -6.1035E-05  0.0000E+00       IONOSPHERIC CORR
GAUT  2.7939677238E-09-1.776356839E-15 172800 2036 GSTB   0 TIME SYSTEM CORR
GPGA -1.4551915228E-09-1.110223025E-14 172800 2036 GSTB   0 TIME SYSTEM CORR
                                                            END OF HEADER
E05 2019 01 15 10 20 00 1.247090985999E-04-6.551204023708E-12 0.000000000000E+00
     9.400000000000E+01-4.315625000000E+01 3.509789053945E-09 1.950299580206E+00
    -2.041459083557E-06 1.300502335653E-04 8.566305041313E-06 5.440614669800E+03
     2.100000000000E+05 2.793967723846E-08 1.119607964806E+00-6.146728992462E-08
     9.524338629562E-01 1.478437500000E+02 1.642591474608E+00-5.747739416418E-09
    -4.175173912752E-10 5.210000000000E+02 2.036000000000E+03 0.000000000000E+00
     3.120000000000E+00 0.000000000000E+00-1.396983861923E-09-1.396983861923E-09
     2.106850000000E+05 0.000000000000E+00 0.000000000000E+00 0.000000000000E+00
E07 2019 01 15 10 20 00-1.129626762122E-04-7.105427357601E-12 0.000000000000E+00
     9.400000000000E+01-5.540625000000E+01 3.544076196428E-09 1.275034961753E+00
    -2.449378371239E-06 1.327727222815E-04 7.959082722664E-06 5.440614160538E+03
     2.100000000000E+05-1.303851604462E-08 1.119624637683E+00-2.048909664154E-08
     9.524647480827E-01 1.644687500000E+02-4.006341892792E-02-5.735238895721E-09
    -2.932264997750E-10 5.210000000000E+02 2.036000000000E+03 0.000000000000E+00
     3.120000000000E+00 0.000000000000E+00 2.328306436539E-10 2.328306436539E-10
     2.106850000000E+05 0.000000000000E+00 0.000000000000E+00 0.000000000000E+00
E08 2019 01 15 10 20 00 6.423025624827E-03-7.474909580196E-12 0.000000000000E+00
     9.400000000000E+01-5.559375000000E+01 3.406213311028E-09 1.566073450845E+00
    -2.579763531685E-06 2.099174307659E-04 8.173286914825E-06 5.440614139557E+03
     2.100000000000E+05 7.450580596924E-09 1.111024718685E+00-3.725290298462E-08
     9.584076640633E-01 1.636562500000E+02 4.554898282939E-01-5.671664819034E-09
    -3.396570052205E-10 5.210000000000E+02 2.036000000000E+03 0.000000000000E+00
     3.120000000000E+00 0.000000000000E+00-8.847564458847E-09-1.001171767712E-08
     2.106850000000E+05 0.000000000000E+00 0.000000000000E+00 0.000000000000E+00
E09 2019 01 15 10 20 00 6.557644112036E-03-1.132605120802E-11 0.000000000000E+00
     9.400000000000E+01-3.606250000000E+01 3.434071614295E-09-1.977649426180E+00
    -1.607462763786E-06 2.368382411078E-04 8.869916200638E-06 5.440617330551E+03
     2.100000000000E+05 1.154839992523E-07 1.111021971325E+00 2.235174179077E-08
     9.584362538713E-01 1.480937500000E+02 7.094969965978E-02-5.720952586353E-09
    -3.435857402966E-10 5.210000000000E+02 2.036000000000E+03 0.000000000000E+00
     3.120000000000E+00 0.000000000000E+00-3.259629011154E-09-3.958120942116E-09
     2.106850000000E+05 0.000000000000E+00 0.000000000000E+00 0.000000000000E+00
E11 2019 01 15 10 20 00 5.719824868720E-03 7.531752999057E-13 0.000000000000E+00
     9.400000000000E+01-3.800000000000E+01 2.749400237841E-09 5.370757221253E-01
    -1.771375536919E-06 2.850882010534E-04 1.024827361107E-05 5.440609987259E+03
     2.100000000000E+05 1.117587089539E-08-9.856933010996E-01 4.097819328308E-08
     9.819937773082E-01 1.334375000000E+02-3.478061781291E-01-5.447726919693E-09
     3.014411276615E-10 5.210000000000E+02 2.036000000000E+03 0.000000000000E+00
     3.120000000000E+00 0.000000000000E+00-1.862645149231E-08-2.002343535423E-08
     2.106850000000E+05 0.000000000000E+00 0.000000000000E+00 0.000000000000E+00
E14 2019 01 15 10 20 00 6.459619209636E-03-5.599076757790E-12 0.000000000000E+00
     9.400000000000E+01-1.663125000000E+02 4.098384999900E-09 3.131067477345E+00
    -7.441267371178E-06 1.662624665769E-01 5.796551704407E-06 5.289393426895E+03
     2.100000000000E+05 2.684071660042E-06-1.588137393440E+00-5.252659320831E-07
     8.826467896445E-01 1.455312500000E+02 1.458362319764E+00-5.736667526657E-09
     5.000208278745E-12 5.210000000000E+02 2.036000000000E+03 0.000000000000E+00
     3.120000000000E+00 4.550000000000E+02 3.306195139885E-08 3.725290298462E-08
     2.106850000000E+05 0.000000000000E+00 0.000000000000E+00 0.000000000000E+00
E15 2019 01 15 10 20 00 9.229074930772E-04-1.094235813071E-12 0.000000000000E+00
     9.400000000000E+01-6.096875000000E+01 2.751186026512E-09-5.947287472395E-01
    -2.944841980934E-06 3.904569894075E-04 9.329989552498E-06 5.440596710205E+03
     2.100000000000E+05 3.166496753693E-08-9.909859616973E-01-2.421438694000E-08
     9.851930167636E-01 1.533750000000E+02-1.568719932556E+00-5.400224941045E-09
     2.464388365953E-10 5.210000000000E+02 2.036000000000E+03 0.000000000000E+00
     3.120000000000E+00 4.550000000000E+02 1.396983861923E-09 1.396983861923E-09
     2.106850000000E+05 0.000000000000E+00 0.000000000000E+00 0.000000000000E+00
E19 2019 01 15 10 20 00-9.106122888625E-06 3.410605131648E-13 0.000000000000E+00
     9.400000000000E+01-3.918750000000E+01 3.314066615605E-09-2.642653846740E+00
    -1.927837729454E-06 1.321106683463E-04 8.279457688332E-06 5.440617366791E+03
     2.100000000000E+05-3.539025783539E-08 1.116376330492E+00 3.166496753693E-08
     9.581932631784E-01 1.609687500000E+02 2.386155189970E+00-5.620591263044E-09
    -3.067984936744E-10 5.210000000000E+02 2.036000000000E+03 0.000000000000E+00
     3.120000000000E+00 0.000000000000E+00-8.614733815193E-09-9.080395102501E-09
     2.106850000000E+05 0.000000000000E+00 0.000000000000E+00 0.000000000000E+00
E24 2019 01 15 10 20 00 6.284929288086E-03-1.965361207112E-11 0.000000000000E+00
     9.400000000000E+01 8.521875000000E+01 2.902620905812E-09 1.748938029352E+00
     3.967434167862E-06 4.787382204086E-04 4.025176167488E-06 5.440616033554E+03
     2.100000000000E+05 2.235174179077E-08-3.067542615051E+00-9.685754776001E-08
     9.876678733142E-01 2.678437500000E+02 5.334549296591E-01-5.723809848226E-09
     5.214502919263E-11 5.210000000000E+02 2.036000000000E+03 0.000000000000E+00
     3.120000000000E+00 0.000000000000E+00 4.260800778866E-08 4.773028194904E-08
     2.106850000000E+05 0.000000000000E+00 0.000000000000E+00 0.000000000000E+00
E27 2019 01 15 10 20 00 5.493059870787E-04-7.716494110355E-12 0.000000000000E+00
     9.400000000000E+01 9.456250000000E+01 2.882620072697E-09-1.557029647392E-02
     4.360452294350E-06 1.694994280115E-04 4.447996616364E-06 5.440624069214E+03
     2.100000000000E+05-1.862645149231E-09-3.073590994259E+00 1.098960638046E-07
     9.896359838196E-01 2.574375000000E+02-8.217031526745E-01-5.695237229491E-09
     4.143029716675E-11 5.210000000000E+02 2.036000000000E+03 0.000000000000E+00
     3.120000000000E+00 0.000000000000E+00-2.561137080193E-09-3.026798367500E-09
     2.106850000000E+05 0.000000000000E+00 0.000000000000E+00 0.000000000000E+00
E33 2019 01 15 10 20 00 8.479224052280E-04 7.105427357601E-14 0.000000000000E+00
     9.400000000000E+01-3.215625000000E+01 2.709398571611E-09-3.115490311008E+00
    -1.568347215652E-06 3.753841156140E-04 8.983537554741E-06 5.440598234177E+03
     2.100000000000E+05-1.862645149231E-08-9.910102241937E-01 7.450580596924E-09
     9.852316582818E-01 1.574062500000E+02-1.403762976683E+00-5.417011354552E-09
     2.442958901901E-10 5.210000000000E+02 2.036000000000E+03 0.000000000000E+00
     3.120000000000E+00 4.550000000000E+02-8.381903171539E-09-9.313225746155E-09
     2.106850000000E+05 0.000000000000E+00 0.000000000000E+00 0.000000000000E+00
E36 2019 01 15 10 20 00 7.594182388857E-04-4.462208380573E-12 0.000000000000E+00
     9.400000000000E+01-5.490625000000E+01 2.700826785991E-09 9.173383251091E-01
    -2.494081854820E-06 3.386901225895E-04 1.073628664017E-05 5.440602260590E+03
     2.100000000000E+05 1.490116119385E-08-9.909838785020E-01 2.980232238770E-08
     9.852397014054E-01 1.213125000000E+02-1.507961448350E+00-5.405225149324E-09
     2.942979729776E-10 5.210000000000E+02 2.036000000000E+03 0.000000000000E+00
     3.120000000000E+00 4.550000000000E+02 9.313225746155E-10 1.164153218269E-09
     2.106850000000E+05 0.000000000000E+00 0.000000000000E+00 0.000000000000E+00
E01 2019 01 15 10 20 00-5.212128162384E-04-8.071765478235E-12 0.000000000000E+00
     9.400000000000E+01 8.084375000000E+01 2.761543600804E-09-1.846169422424E+00
     3.822147846222E-06 8.037558291107E-05 4.369765520096E-06 5.440617540359E+03
     2.100000000000E+05 9.313225746155E-09-3.070998557131E+00 5.215406417847E-08
     9.901010045153E-01 2.613750000000E+02-5.792377189817E-01-5.607733584613E-09
     4.678766317969E-11 2.580000000000E+02 2.036000000000E+03 0.000000000000E+00
     3.120000000000E+00 0.000000000000E+00-4.656612873077E-09 0.000000000000E+00
     2.107000000000E+05 0.000000000000E+00 0.000000000000E+00 0.000000000000E+00
E04 2019 01 15 10 20 00-2.004709676839E-04-7.830180948076E-12 0.000000000000E+00
     9.400000000000E+01-3.025000000000E+01 3.486573801222E-09 3.007372158082E+00
    -1.430511474609E-06 7.263477891684E-05 8.706003427505E-06 5.440613348007E+03
     2.100000000000E+05-2.048909664154E-08 1.119673168527E+00 6.332993507385E-08
     9.524637415951E-01 1.507812500000E+02 2.158748736550E+00-5.686665443870E-09
    -2.775115594704E-10 2.580000000000E+02 2.036000000000E+03 0.000000000000E+00
     3.120000000000E+00 0.000000000000E+00-7.916241884232E-09 0.000000000000E+00
     2.107000000000E+05 0.000000000000E+00 0.000000000000E+00 0.000000000000E+00
